satname,norad_id,inclination_deg,eccentricity,mean_motion_rev_per_day,perigee_km,apogee_km,l1,l2
STARLINK-1316,45415,53.1559,0.0006359,15.36414622,452.37561624022965,461.0681897930863,1 45415U 20019BH  26135.29166117  .00024511  00000+0  68830-3 0  9991,2 45415  53.1559 178.4769 0006359 358.8548   1.2440 15.36414622340210
STARLINK-1286,45417,53.0453,0.000367,15.56269135,395.97890464124066,400.9529311829883,1 45417U 20019BK  26135.31605761  .00026459  00000+0  37546-3 0  9992,2 45417  53.0453 169.2635 0003670 345.4937  14.5968 15.56269135340582
STARLINK-1308,45419,53.0466,0.0008257,15.62766262,374.09068639751695,385.2505298815986,1 45419U 20019BM  26135.31882620  .00058280  00000+0  63652-3 0  9999,2 45419  53.0466 189.1112 0008257 327.5113  32.5392 15.62766262340055
STARLINK-1329,45531,53.0425,0.000513,15.7013763,355.0474183086699,361.95921127164365,1 45531U 20025A   26135.22645505  .00038635  00000+0  31642-3 0  9996,2 45531  53.0425 114.5325 0005130  58.0660 302.0854 15.70137630335875
STARLINK-1338,45532,53.0442,0.0005051,15.65476754,368.4585423574363,375.27739737799766,1 45532U 20025B   26135.24028024  .00044679  00000+0  44098-3 0  9994,2 45532  53.0442 120.2400 0005051  37.5092 322.6274 15.65476754335798
STARLINK-1350,45535,53.0724,0.0001621,15.37675972,451.8763272519882,454.09097656733866,1 45535U 20025E   26135.24838151  .00007146  00000+0  20059-3 0  9996,2 45535  53.0724  80.1570 0001621  60.1914 299.9250 15.37675972336399
STARLINK-1362,45538,53.1577,0.0003619,15.3473853,459.22190664893606,464.1725786737743,1 45538U 20025H   26135.24892112 -.00156326  00000+0 -46601-2 0  9993,2 45538  53.1577 150.8285 0003619  57.3387 302.7965 15.34738530335389
STARLINK-1368,45540,53.1552,0.0004306,15.3519982,457.38239614827853,463.2716813784609,1 45540U 20025K   26135.26286178  .00023303  00000+0  68108-3 0  9990,2 45540  53.1552 151.1333 0004306  39.2817 320.8497 15.35199820335378
STARLINK-1371,45542,53.0452,0.0007001,15.57995804,388.7173603210249,398.1989478557789,1 45542U 20025M   26135.30279786  .00052880  00000+0  69445-3 0  9991,2 45542  53.0452 128.4656 0007001  35.9569 324.1912 15.57995804335688
STARLINK-1372,45543,53.1575,0.0004297,15.3572042,455.84366206456616,461.7193098113803,1 45543U 20025N   26135.29449505  .00018480  00000+0  53383-3 0  9990,2 45543  53.1575 150.5718 0004297  31.5835 328.5426 15.35720420334484
STARLINK-1373,45544,53.0442,0.0004265,15.67149843,364.18608382957154,369.93973935416034,1 45544U 20025P   26135.22183984  .00029300  00000+0  27276-3 0  9995,2 45544  53.0442 125.8788 0004265  11.3803 348.7308 15.67149843335714
STARLINK-1327,45555,53.041,0.0005347,15.6489191,369.9395157402978,377.15976943588066,1 45555U 20025AA  26135.29181223  .00028447  00000+0  28993-3 0  9996,2 45555  53.0410 102.2920 0005347  15.9717 344.1465 15.64891910336041
STARLINK-1356,45564,53.0454,0.000412,15.54681311,400.2853161407065,405.87303827072446,1 45564U 20025AK  26135.20961527  .00047797  00000+0  71117-3 0  9995,2 45564  53.0454 114.6598 0004120  21.3903 338.7278 15.54681311335864
STARLINK-1357,45565,53.0459,0.0007958,15.66714078,362.9447657241599,373.6824164849613,1 45565U 20025AL  26135.24940147  .00033369  00000+0  31492-3 0  9997,2 45565  53.0459  72.7265 0007958  52.1799 307.9936 15.66714078336468
STARLINK-1361,45567,53.0435,0.000213,15.58368601,390.93604552976467,393.82028499016633,1 45567U 20025AN  26135.28718219  .00064849  00000+0  83780-3 0  9990,2 45567  53.0435 112.7780 0002130  23.2812 336.8296 15.58368601335909
STARLINK-1363,45568,53.0318,0.0001322,16.01135096,270.39513754786003,272.1532418664183,1 45568U 20025AP  26134.06525683  .00280307  44618-4  50530-3 0  9991,2 45568  53.0318  66.1709 0001322 157.2425 202.8663 16.01135096336431
STARLINK-1366,45569,53.0334,7.39e-05,15.96467786,283.7353379922288,284.72003549293004,1 45569U 20025AQ  26135.25002315  .00271279  40453-4  63666-3 0  9991,2 45569  53.0334  61.9871 0000739 123.6236 301.4686 15.96467786  6028
STARLINK-1376,45570,53.1564,0.000594,15.36088632,453.628387857525,461.7493489892113,1 45570U 20025AR  26135.27668504  .00027677  00000+0  78369-3 0  9999,2 45570  53.1564 127.1147 0005940  32.8858 327.2514 15.36088632335717
STARLINK-1320,45572,53.0461,0.0003499,15.80378744,327.0218113069004,331.71572384305,1 45572U 20025AT  26134.37911875  .00089123  00000+0  46057-3 0  9996,2 45572  53.0461  18.7856 0003499 214.0044 146.0753 15.80378744337151
STARLINK-1321,45573,53.0418,0.0005483,15.5956846,385.19473892775295,392.6154773035114,1 45573U 20025AU  26135.18335214  .00035019  00000+0  43668-3 0  9994,2 45573  53.0418  97.3517 0005483  47.2695 312.8778 15.59568460335806
STARLINK-1331,45578,53.0466,0.0006829,15.59103217,385.6291181768247,394.87338284937596,1 45578U 20025AZ  26135.26779967  .00030362  00000+0  38627-3 0  9990,2 45578  53.0466 103.7968 0006829  27.7134 332.4240 15.59103217336035
STARLINK-1333,45580,53.1553,0.0004111,15.33106676,463.7361229667522,469.3638245965949,1 45580U 20025BB  26135.27835038  .00034384  00000+0  10666-2 0  9996,2 45580  53.1553 128.1160 0004111  45.1277 315.0058 15.33106676335706
STARLINK-1335,45581,53.1528,0.0004737,15.34612203,458.8323935625058,465.3128081383511,1 45581U 20025BC  26135.26671444  .00025234  00000+0  75023-3 0  9998,2 45581  53.1528 125.1569 0004737  46.5341 313.6055 15.34612203335733
STARLINK-1337,45582,53.046,0.0007552,15.71051756,350.8043541639254,360.9754283805032,1 45582U 20025BD  26135.30172269  .00040493  00000+0  31871-3 0  9992,2 45582  53.0460  94.9791 0007552  37.0862 323.0675 15.71051756336149
STARLINK-1347,45586,53.039,0.0005086,15.65947882,367.0816759064828,373.94640374419396,1 45586U 20025BH  26135.08260430  .00036487  00000+0  35475-3 0  9991,2 45586  53.0390  65.6240 0005086  66.7884 293.3666 15.65947882336531
STARLINK-1364,45589,53.0435,0.0005361,15.60358519,382.9940833779601,390.2472565516955,1 45589U 20025BL  26135.19254902  .00032297  00000+0  39144-3 0  9995,2 45589  53.0435 101.4789 0005361  10.2329 349.8791 15.60358519336045
STARLINK-1365,45590,53.0462,0.000564,15.5531582,397.4111693008008,405.0583006178358,1 45590U 20025BM  26135.25164002  .00045449  00000+0  66107-3 0  9997,2 45590  53.0462 133.8755 0005640   8.6242 351.4865 15.55315820335619
STARLINK-1443,45660,53.132,0.0004375,15.3057439,471.0995836682587,477.0952887999647,1 45660U 20035D   26135.23321943  .00018147  00000+0  61610-3 0  9992,2 45660  53.1320 116.6558 0004375  28.2679 331.8558 15.30574390328937
STARLINK-1446,45663,53.0233,0.0004529,15.46189753,424.8020131403191,430.9669073790228,1 45663U 20035G   26135.14004465  .00011722  00000+0  24318-3 0  9998,2 45663  53.0233  42.9782 0004529 102.1084 258.0430 15.46189753329948
STARLINK-1448,45665,53.0441,0.0007456,15.65345208,367.2130430578691,377.27921437941313,1 45665U 20035J   26135.23892247  .00030631  00000+0  30594-3 0  9996,2 45665  53.0441  88.8230 0007456  29.3469 330.7963 15.65345208329306
STARLINK-1451,45668,53.0511,0.0002749,15.13112677,524.8161223974175,528.6124096234698,1 45668U 20035M   26135.18984500  .00010330  00000+0  59249-3 0  9999,2 45668  53.0511 125.0463 0002749  45.4687 314.6530 15.13112677328800
STARLINK-1452,45669,53.0269,6.66e-05,15.54743216,402.4475544915822,403.350788509626,1 45669U 20035N   26135.09457182  .00061976  00000+0  91653-3 0  9998,2 45669  53.0269  62.9450 0000666  88.9406 271.1680 15.54743216329665
STARLINK-1453,45670,53.0417,0.0003326,15.65766477,368.79050734941393,373.2800567514332,1 45670U 20035P   26135.27653990  .00033629  00000+0  32998-3 0  9996,2 45670  53.0417  49.0068 0003326 109.7666 250.3708 15.65766477329766
STARLINK-1454,45671,53.0439,0.0003608,15.63704293,374.53052497353565,379.4050085732388,1 45671U 20035Q   26135.15794345  .00073581  00000+0  77272-3 0  9999,2 45671  53.0439  90.2017 0003608  18.2220 341.8922 15.63704293329272
STARLINK-1456,45673,53.0439,0.0006817,15.61738303,378.02685608326374,387.24449354810713,1 45673U 20035S   26135.23137099  .00071141  00000+0  80642-3 0  9992,2 45673  53.0439  84.1697 0006817  67.5927 292.5807 15.61738303329389
STARLINK-1457,45674,53.0329,0.0005137,16.15168896,229.30549070302368,236.09746615576114,1 45674U 20035T   26135.21593353  .00756436  35542-3  55065-3 0  9991,2 45674  53.0329  42.6425 0005137 233.8616 126.1945 16.15168896329922
STARLINK-1458,45675,53.0469,0.0005844,15.52854176,404.43140601801406,412.36350749106896,1 45675U 20035U   26135.18159544  .00053445  00000+0  84793-3 0  9995,2 45675  53.0469  97.4449 0005844  22.0296 338.0963 15.52854176329151
STARLINK-1460,45676,53.1573,0.0004711,15.32938646,463.82537475251047,470.27491007809294,1 45676U 20035V   26135.25129571  .00025483  00000+0  79849-3 0  9998,2 45676  53.1573 115.3955 0004711  58.0440 302.1020 15.32938646328915
STARLINK-1392,45677,53.1528,0.000356,15.36069827,455.3110851775873,460.17823291882996,1 45677U 20035W   26135.25327160  .00027782  00000+0  78731-3 0  9996,2 45677  53.1528 114.5732 0003560  65.8501 294.2874 15.36069827328968
STARLINK-1394,45679,53.0415,0.0008031,15.61556347,377.7308531045137,388.5908497134469,1 45679U 20035Y   26135.03777501  .00069812  00000+0  79685-3 0  9991,2 45679  53.0415  75.3528 0008031  64.5584 295.6259 15.61556347329482
STARLINK-1402,45685,53.0423,0.0007448,15.54905956,397.37585411447617,407.4761807852701,1 45685U 20035AE  26135.06465704  .00057499  00000+0  84544-3 0  9998,2 45685  53.0423  64.8135 0007448  90.1693 270.0171 15.54905956329646
STARLINK-1404,45686,53.1581,0.0005282,15.41852239,437.0411970740024,444.24455613564714,1 45686U 20035AF  26135.20900500  .00034824  00000+0  81408-3 0  9996,2 45686  53.1581  97.4230 0005282  75.9717 284.1876 15.41852239329204
STARLINK-1413,45689,53.1581,0.0003406,15.32906086,464.8155693662675,469.4785768768779,1 45689U 20035AJ  26135.28992310  .00026457  00000+0  82942-3 0  9994,2 45689  53.1581  99.8619 0003406  79.5013 280.6372 15.32906086329098
